ONEWEB-0607             
1 54671U 22166AF  24131.18557259  .00000058  00000+0  10850-3 0  9992
2 54671  87.9320  36.8349 0001617  72.8855 287.2456 13.21824762 70543
ONEWEB-0608             
1 54672U 22166AG  24130.73770591  .00000073  00000+0  14417-3 0  9999
2 54672  87.9326  36.9431 0001668  58.5374 301.5923 13.21824380 70035
ONEWEB-0610             
1 54673U 22166AH  24130.79447503  .00000054  00000+0  99229-4 0  9994
2 54673  87.9322  36.9288 0001730  63.5943 296.5368 13.21824830 69944
ONEWEB-0611             
1 54674U 22166AJ  24131.16666242 -.00000689  00000+0 -16993-2 0  9991
2 54674  87.9320  36.8541 0001771  86.6968 273.4369 13.21830079 70457
ONEWEB-0612             
1 54675U 22166AK  24131.17927408  .00000049  00000+0  87675-4 0  9992
2 54675  87.9319  36.8347 0001781  69.3548 290.7777 13.21826284 70440
ONEWEB-0615             
1 54676U 22166AL  24130.78185613  .00000101  00000+0  21396-3 0  9999
2 54676  87.9320  36.9383 0001602  78.0794 282.0520 13.21825293 69937
ONEWEB-0655             
1 54677U 22166AM  24131.20923432 -.00000017  00000+0 -72884-4 0  9994
2 54677  87.9318  36.8550 0001239  82.5482 277.5792 13.21826324 70455
ONEWEB-0659             
1 54678U 22166AN  24131.15088462  .00000094  00000+0  19661-3 0  9990
2 54678  87.9319  36.8741 0002113  82.3793 277.7581 13.21826043 70539
