<?xml version="1.0" encoding="UTF-8"?>
<ndm xmlns:xsi="http://www.w3.org/2001/XMLSchema-instance" xsi:noNamespaceSchemaLocation="https://sanaregistry.org/r/ndmxml_unqualified/ndmxml-2.0.0-master-2.0.xsd">
<omm id="CCSDS_OMM_VERS" version="2.0">
<header><CREATION_DATE/><ORIGINATOR/></header><body><segment><metadata><OBJECT_NAME>ONEWEB-0607</OBJECT_NAME><OBJECT_ID>2022-166AF</OBJECT_ID><CENTER_NAME>EARTH</CENTER_NAME><REF_FRAME>TEME</REF_FRAME><TIME_SYSTEM>UTC</TIME_SYSTEM><MEAN_ELEMENT_THEORY>SGP4</MEAN_ELEMENT_THEORY></metadata><data><meanElements><EPOCH>2024-05-10T04:27:13.471776</EPOCH><MEAN_MOTION>13.21824762</MEAN_MOTION><ECCENTRICITY>.0001617</ECCENTRICITY><INCLINATION>87.9320</INCLINATION><RA_OF_ASC_NODE>36.8349</RA_OF_ASC_NODE><ARG_OF_PERICENTER>72.8855</ARG_OF_PERICENTER><MEAN_ANOMALY>287.2456</MEAN_ANOMALY></meanElements><tleParameters><EPHEMERIS_TYPE>0</EPHEMERIS_TYPE><CLASSIFICATION_TYPE>U</CLASSIFICATION_TYPE><NORAD_CAT_ID>54671</NORAD_CAT_ID><ELEMENT_SET_NO>999</ELEMENT_SET_NO><REV_AT_EPOCH>7054</REV_AT_EPOCH><BSTAR>.1085E-3</BSTAR><MEAN_MOTION_DOT>.58E-6</MEAN_MOTION_DOT><MEAN_MOTION_DDOT>0</MEAN_MOTION_DDOT></tleParameters></data></segment></body></omm>
<omm id="CCSDS_OMM_VERS" version="2.0">
<header><CREATION_DATE/><ORIGINATOR/></header><body><segment><metadata><OBJECT_NAME>ONEWEB-0608</OBJECT_NAME><OBJECT_ID>2022-166AG</OBJECT_ID><CENTER_NAME>EARTH</CENTER_NAME><REF_FRAME>TEME</REF_FRAME><TIME_SYSTEM>UTC</TIME_SYSTEM><MEAN_ELEMENT_THEORY>SGP4</MEAN_ELEMENT_THEORY></metadata><data><meanElements><EPOCH>2024-05-09T17:42:17.790624</EPOCH><MEAN_MOTION>13.21824380</MEAN_MOTION><ECCENTRICITY>.0001668</ECCENTRICITY><INCLINATION>87.9326</INCLINATION><RA_OF_ASC_NODE>36.9431</RA_OF_ASC_NODE><ARG_OF_PERICENTER>58.5374</ARG_OF_PERICENTER><MEAN_ANOMALY>301.5923</MEAN_ANOMALY></meanElements><tleParameters><EPHEMERIS_TYPE>0</EPHEMERIS_TYPE><CLASSIFICATION_TYPE>U</CLASSIFICATION_TYPE><NORAD_CAT_ID>54672</NORAD_CAT_ID><ELEMENT_SET_NO>999</ELEMENT_SET_NO><REV_AT_EPOCH>7003</REV_AT_EPOCH><BSTAR>.14417E-3</BSTAR><MEAN_MOTION_DOT>.73E-6</MEAN_MOTION_DOT><MEAN_MOTION_DDOT>0</MEAN_MOTION_DDOT></tleParameters></data></segment></body></omm>
<omm id="CCSDS_OMM_VERS" version="2.0">
<header><CREATION_DATE/><ORIGINATOR/></header><body><segment><metadata><OBJECT_NAME>ONEWEB-0610</OBJECT_NAME><OBJECT_ID>2022-166AH</OBJECT_ID><CENTER_NAME>EARTH</CENTER_NAME><REF_FRAME>TEME</REF_FRAME><TIME_SYSTEM>UTC</TIME_SYSTEM><MEAN_ELEMENT_THEORY>SGP4</MEAN_ELEMENT_THEORY></metadata><data><meanElements><EPOCH>2024-05-09T19:04:02.642592</EPOCH><MEAN_MOTION>13.21824830</MEAN_MOTION><ECCENTRICITY>.000173</ECCENTRICITY><INCLINATION>87.9322</INCLINATION><RA_OF_ASC_NODE>36.9288</RA_OF_ASC_NODE><ARG_OF_PERICENTER>63.5943</ARG_OF_PERICENTER><MEAN_ANOMALY>296.5368</MEAN_ANOMALY></meanElements><tleParameters><EPHEMERIS_TYPE>0</EPHEMERIS_TYPE><CLASSIFICATION_TYPE>U</CLASSIFICATION_TYPE><NORAD_CAT_ID>54673</NORAD_CAT_ID><ELEMENT_SET_NO>999</ELEMENT_SET_NO><REV_AT_EPOCH>6994</REV_AT_EPOCH><BSTAR>.99229E-4</BSTAR><MEAN_MOTION_DOT>.54E-6</MEAN_MOTION_DOT><MEAN_MOTION_DDOT>0</MEAN_MOTION_DDOT></tleParameters></data></segment></body></omm>
<omm id="CCSDS_OMM_VERS" version="2.0">
<header><CREATION_DATE/><ORIGINATOR/></header><body><segment><metadata><OBJECT_NAME>ONEWEB-0611</OBJECT_NAME><OBJECT_ID>2022-166AJ</OBJECT_ID><CENTER_NAME>EARTH</CENTER_NAME><REF_FRAME>TEME</REF_FRAME><TIME_SYSTEM>UTC</TIME_SYSTEM><MEAN_ELEMENT_THEORY>SGP4</MEAN_ELEMENT_THEORY></metadata><data><meanElements><EPOCH>2024-05-10T03:59:59.633088</EPOCH><MEAN_MOTION>13.21830079</MEAN_MOTION><ECCENTRICITY>.0001771</ECCENTRICITY><INCLINATION>87.9320</INCLINATION><RA_OF_ASC_NODE>36.8541</RA_OF_ASC_NODE><ARG_OF_PERICENTER>86.6968</ARG_OF_PERICENTER><MEAN_ANOMALY>273.4369</MEAN_ANOMALY></meanElements><tleParameters><EPHEMERIS_TYPE>0</EPHEMERIS_TYPE><CLASSIFICATION_TYPE>U</CLASSIFICATION_TYPE><NORAD_CAT_ID>54674</NORAD_CAT_ID><ELEMENT_SET_NO>999</ELEMENT_SET_NO><REV_AT_EPOCH>7045</REV_AT_EPOCH><BSTAR>-.16993E-2</BSTAR><MEAN_MOTION_DOT>-.689E-5</MEAN_MOTION_DOT><MEAN_MOTION_DDOT>0</MEAN_MOTION_DDOT></tleParameters></data></segment></body></omm>
<omm id="CCSDS_OMM_VERS" version="2.0">
<header><CREATION_DATE/><ORIGINATOR/></header><body><segment><metadata><OBJECT_NAME>ONEWEB-0612</OBJECT_NAME><OBJECT_ID>2022-166AK</OBJECT_ID><CENTER_NAME>EARTH</CENTER_NAME><REF_FRAME>TEME</REF_FRAME><TIME_SYSTEM>UTC</TIME_SYSTEM><MEAN_ELEMENT_THEORY>SGP4</MEAN_ELEMENT_THEORY></metadata><data><meanElements><EPOCH>2024-05-10T04:18:09.280512</EPOCH><MEAN_MOTION>13.21826284</MEAN_MOTION><ECCENTRICITY>.0001781</ECCENTRICITY><INCLINATION>87.9319</INCLINATION><RA_OF_ASC_NODE>36.8347</RA_OF_ASC_NODE><ARG_OF_PERICENTER>69.3548</ARG_OF_PERICENTER><MEAN_ANOMALY>290.7777</MEAN_ANOMALY></meanElements><tleParameters><EPHEMERIS_TYPE>0</EPHEMERIS_TYPE><CLASSIFICATION_TYPE>U</CLASSIFICATION_TYPE><NORAD_CAT_ID>54675</NORAD_CAT_ID><ELEMENT_SET_NO>999</ELEMENT_SET_NO><REV_AT_EPOCH>7044</REV_AT_EPOCH><BSTAR>.87675E-4</BSTAR><MEAN_MOTION_DOT>.49E-6</MEAN_MOTION_DOT><MEAN_MOTION_DDOT>0</MEAN_MOTION_DDOT></tleParameters></data></segment></body></omm>
<omm id="CCSDS_OMM_VERS" version="2.0">
<header><CREATION_DATE/><ORIGINATOR/></header><body><segment><metadata><OBJECT_NAME>ONEWEB-0615</OBJECT_NAME><OBJECT_ID>2022-166AL</OBJECT_ID><CENTER_NAME>EARTH</CENTER_NAME><REF_FRAME>TEME</REF_FRAME><TIME_SYSTEM>UTC</TIME_SYSTEM><MEAN_ELEMENT_THEORY>SGP4</MEAN_ELEMENT_THEORY></metadata><data><meanElements><EPOCH>2024-05-09T18:45:52.369632</EPOCH><MEAN_MOTION>13.21825293</MEAN_MOTION><ECCENTRICITY>.0001602</ECCENTRICITY><INCLINATION>87.9320</INCLINATION><RA_OF_ASC_NODE>36.9383</RA_OF_ASC_NODE><ARG_OF_PERICENTER>78.0794</ARG_OF_PERICENTER><MEAN_ANOMALY>282.0520</MEAN_ANOMALY></meanElements><tleParameters><EPHEMERIS_TYPE>0</EPHEMERIS_TYPE><CLASSIFICATION_TYPE>U</CLASSIFICATION_TYPE><NORAD_CAT_ID>54676</NORAD_CAT_ID><ELEMENT_SET_NO>999</ELEMENT_SET_NO><REV_AT_EPOCH>6993</REV_AT_EPOCH><BSTAR>.21396E-3</BSTAR><MEAN_MOTION_DOT>.101E-5</MEAN_MOTION_DOT><MEAN_MOTION_DDOT>0</MEAN_MOTION_DDOT></tleParameters></data></segment></body></omm>
<omm id="CCSDS_OMM_VERS" version="2.0">
<header><CREATION_DATE/><ORIGINATOR/></header><body><segment><metadata><OBJECT_NAME>ONEWEB-0655</OBJECT_NAME><OBJECT_ID>2022-166AM</OBJECT_ID><CENTER_NAME>EARTH</CENTER_NAME><REF_FRAME>TEME</REF_FRAME><TIME_SYSTEM>UTC</TIME_SYSTEM><MEAN_ELEMENT_THEORY>SGP4</MEAN_ELEMENT_THEORY></metadata><data><meanElements><EPOCH>2024-05-10T05:01:17.845248</EPOCH><MEAN_MOTION>13.21826324</MEAN_MOTION><ECCENTRICITY>.0001239</ECCENTRICITY><INCLINATION>87.9318</INCLINATION><RA_OF_ASC_NODE>36.8550</RA_OF_ASC_NODE><ARG_OF_PERICENTER>82.5482</ARG_OF_PERICENTER><MEAN_ANOMALY>277.5792</MEAN_ANOMALY></meanElements><tleParameters><EPHEMERIS_TYPE>0</EPHEMERIS_TYPE><CLASSIFICATION_TYPE>U</CLASSIFICATION_TYPE><NORAD_CAT_ID>54677</NORAD_CAT_ID><ELEMENT_SET_NO>999</ELEMENT_SET_NO><REV_AT_EPOCH>7045</REV_AT_EPOCH><BSTAR>-.72884E-4</BSTAR><MEAN_MOTION_DOT>-.17E-6</MEAN_MOTION_DOT><MEAN_MOTION_DDOT>0</MEAN_MOTION_DDOT></tleParameters></data></segment></body></omm>
<omm id="CCSDS_OMM_VERS" version="2.0">
<header><CREATION_DATE/><ORIGINATOR/></header><body><segment><metadata><OBJECT_NAME>ONEWEB-0659</OBJECT_NAME><OBJECT_ID>2022-166AN</OBJECT_ID><CENTER_NAME>EARTH</CENTER_NAME><REF_FRAME>TEME</REF_FRAME><TIME_SYSTEM>UTC</TIME_SYSTEM><MEAN_ELEMENT_THEORY>SGP4</MEAN_ELEMENT_THEORY></metadata><data><meanElements><EPOCH>2024-05-10T03:37:16.431168</EPOCH><MEAN_MOTION>13.21826043</MEAN_MOTION><ECCENTRICITY>.0002113</ECCENTRICITY><INCLINATION>87.9319</INCLINATION><RA_OF_ASC_NODE>36.8741</RA_OF_ASC_NODE><ARG_OF_PERICENTER>82.3793</ARG_OF_PERICENTER><MEAN_ANOMALY>277.7581</MEAN_ANOMALY></meanElements><tleParameters><EPHEMERIS_TYPE>0</EPHEMERIS_TYPE><CLASSIFICATION_TYPE>U</CLASSIFICATION_TYPE><NORAD_CAT_ID>54678</NORAD_CAT_ID><ELEMENT_SET_NO>999</ELEMENT_SET_NO><REV_AT_EPOCH>7053</REV_AT_EPOCH><BSTAR>.19661E-3</BSTAR><MEAN_MOTION_DOT>.94E-6</MEAN_MOTION_DOT><MEAN_MOTION_DDOT>0</MEAN_MOTION_DDOT></tleParameters></data></segment></body></omm>

</ndm>
